OBJECT_NAME,OBJECT_ID,EPOCH,MEAN_MOTION,ECCENTRICITY,INCLINATION,RA_OF_ASC_NODE,ARG_OF_PERICENTER,MEAN_ANOMALY,EPHEMERIS_TYPE,CLASSIFICATION_TYPE,NORAD_CAT_ID,ELEMENT_SET_NO,REV_AT_EPOCH,BSTAR,MEAN_MOTION_DOT,MEAN_MOTION_DDOT
MERIDIAN 10,2022-030A,2026-06-25T22:37:06.880800,2.00612698,.67863149,62.6784,139.8454,272.8503,17.6312,0,U,52145,999,3120,0,.164E-5,0
OMNI-L1,2022-033A,2026-06-26T16:39:17.534016,14.82780942,.0003929,97.8397,256.6866,245.5881,114.4923,0,U,52157,999,22886,.23194E-3,.1823E-4,0
ENMAP,2022-033C,2026-06-26T17:32:07.913760,14.74996577,.0001425,97.9794,259.8457,85.2612,274.8759,0,U,52159,999,22806,.14291E-3,.911E-5,0
ARCSAT-1,2022-033E,2026-06-25T04:13:41.177856,15.53792879,.00056656,97.2755,268.5680,153.7883,206.3659,0,U,52161,999,23694,.22620463E-3,.1443E-3,0
GLOBAL-18,2022-034B,2026-06-26T08:48:58.720320,15.46591511,.000365,52.9799,212.7538,323.2329,36.8426,0,U,52196,999,23838,.38644E-3,.19169E-3,0
GAOFEN-3 03,2022-035A,2026-06-26T17:37:37.579872,14.42215729,.0001509,98.4063,186.1763,99.4517,260.6844,0,U,52200,999,22222,.63475E-5,-.23E-6,0
DAQI-1,2022-039A,2026-06-26T18:07:43.757184,14.57683079,.0002624,98.1478,116.4093,208.0986,152.0072,0,U,52257,999,22333,.89192E-4,.362E-5,0
BRO-6,2022-047AE,2026-06-26T16:29:39.466176,15.51174529,.0004184,97.3402,268.9278,44.4459,315.7128,0,U,52422,999,23262,.60168E-3,.35167E-3,0
JILIN-1 GAOFEN 3D27,2022-048B,2026-06-26T17:46:09.416064,15.77634135,.0002189,97.5719,292.5570,296.2741,63.8300,0,U,52444,999,23098,.82069E-3,.138327E-2,0
JILIN-1 GAOFEN 3D28,2022-048C,2026-06-26T14:14:29.917248,15.81097883,.0001724,97.5646,292.5869,257.1999,102.9076,0,U,52445,999,23101,.83368E-3,.164723E-2,0
VIGORIDE-3,2022-057AE,2026-06-26T15:37:24.678048,15.27372362,.000974,97.6609,317.8767,91.8702,268.3652,0,U,52760,999,22660,.21466E-3,.5681E-4,0
ION SCV-006,2022-057AF,2026-06-26T16:24:07.056864,15.45508566,.0018208,97.6101,326.7623,81.7325,278.5987,0,U,52761,999,22758,.26265E-3,.12586E-3,0
SHERPA-AC1,2022-057AH,2026-06-26T09:08:27.258720,15.36385517,.0008698,97.6689,326.9913,65.6767,294.5384,0,U,52763,999,22711,.23033E-3,.8096E-4,0
OMNI-L2,2022-057AR,2026-06-26T17:08:17.441664,14.81393049,.0005155,97.4711,239.4322,298.6961,61.3734,0,U,52771,999,22180,.16723E-3,.126E-4,0
STEP CUBE LAB-II,2022-065D,2026-06-26T17:00:53.901216,14.63317335,.0008661,98.2235,321.5818,4.5709,355.5571,0,U,52897,999,21289,.19617E-3,.965E-5,0
RANDEV,2022-065E,2026-06-26T15:20:22.954848,14.63704908,.0008037,98.2221,321.8682,5.7876,354.3417,0,U,52898,999,21263,.1828E-3,.904E-5,0
SNUGLITE-II,2022-065F,2026-06-26T15:58:26.440320,14.64363342,.0007338,98.2211,322.4796,4.6480,355.4789,0,U,52899,999,21238,.17432E-3,.873E-5,0
MIMAN,2022-065G,2026-06-26T15:08:29.359968,14.61852875,.0007571,98.2271,320.0661,6.8308,353.2995,0,U,52900,999,21182,.10865E-3,.495E-5,0
STARLINK-4362,2022-077A,2026-06-26T18:27:36.261216,15.05664934,.0002179,97.3097,356.2355,83.5933,276.5543,0,U,53043,999,21732,-.15489E-3,-.2292E-4,0
LARES-2,2022-080A,2026-06-26T09:41:16.046016,6.38965133,.0005264,70.1592,302.1681,334.1364,25.8897,0,U,53105,999,9225,0,-.28E-6,0
GREENCUBE (IO-117),2022-080E,2026-06-26T16:16:29.555040,6.42583228,.0008985,70.1443,294.9444,287.5436,72.4241,0,U,53109,999,9267,0,-.3E-7,0
STARLINK-4410,2022-084R,2026-06-26T18:00:00.998784,15.36096024,.0001323,97.6010,239.1013,92.6448,313.7135,0,U,53204,999,586,.40773E-3,.14262E-3,0
COSMOS 2558,2022-089A,2026-06-26T17:36:25.396992,15.77141836,.0002156,97.2253,282.1994,243.4842,116.6204,0,U,53323,999,21933,.68408E-3,.112451E-2,0
TECMS,2022-090A,2026-06-26T18:16:20.474112,15.21468019,.0004392,97.3141,245.5997,146.9761,213.1750,0,U,53346,999,21626,.16456E-3,.3632E-4,0
DONGPO 02,2022-098J,2026-06-26T07:46:25.994208,15.76491038,.0003347,97.5521,309.3171,249.2843,110.8064,0,U,53452,999,21623,.75926E-3,.12146E-2,0
DONGPO 01,2022-098K,2026-06-26T15:29:32.271360,15.74167190,.0002332,97.5587,310.1688,223.9119,136.1960,0,U,53453,999,21624,.71689E-3,.103456E-2,0
STARLINK-4400,2022-099D,2026-06-26T14:46:18.412032,15.05658225,.0001191,97.3136,296.1706,140.9252,219.2062,0,U,53468,999,21236,-.58785E-4,-.905E-5,0
STARLINK-4621,2022-105AE,2026-06-26T14:50:18.174624,15.05633348,.0001944,97.3111,56.1873,104.7321,255.4123,0,U,53676,999,20962,.30632E-3,.4364E-4,0
SHERPA-LTC2,2022-107BG,2026-06-26T16:57:20.894112,14.69788522,.0393077,53.2339,180.0299,252.7741,102.9863,0,U,53754,999,20394,.19521E-3,.3662E-4,0
CENTISPACE-1 S3,2022-108A,2026-06-26T17:09:53.851104,14.61263462,.0009965,53.5340,15.8599,20.4139,339.7233,0,U,53757,999,20292,.12062E-3,.41E-5,0
