MERIDIAN 10             
1 52145U 22030A   26176.94244075  .00000164  00000+0  00000+0 0  9990
2 52145  62.6784 139.8454 6786314 272.8503  17.6312  2.00612698 31208
OMNI-L1                 
1 52157U 22033A   26177.69395294  .00001823  00000+0  23194-3 0  9995
2 52157  97.8397 256.6866 0003929 245.5881 114.4923 14.82780942228865
ENMAP                   
1 52159U 22033C   26177.73064715  .00000911  00000+0  14291-3 0  9998
2 52159  97.9794 259.8457 0001425  85.2612 274.8759 14.74996577228064
ARCSAT-1                
1 52161U 22033E   26176.17617104  .00014430  00000+0  22620-3 0  9990
2 52161  97.2755 268.5680 0005665 153.7883 206.3659 15.53792879236945
GLOBAL-18               
1 52196U 22034B   26177.36734630  .00019169  00000+0  38644-3 0  9992
2 52196  52.9799 212.7538 0003650 323.2329  36.8426 15.46591511238383
GAOFEN-3 03             
1 52200U 22035A   26177.73446273 -.00000023  00000+0  63475-5 0  9995
2 52200  98.4063 186.1763 0001509  99.4517 260.6844 14.42215729222220
DAQI-1                  
1 52257U 22039A   26177.75536756  .00000362  00000+0  89192-4 0  9997
2 52257  98.1478 116.4093 0002624 208.0986 152.0072 14.57683079223331
BRO-6                   
1 52422U 22047AE  26177.68726234  .00035167  00000+0  60168-3 0  9996
2 52422  97.3402 268.9278 0004184  44.4459 315.7128 15.51174529232623
JILIN-1 GAOFEN 3D27     
1 52444U 22048B   26177.74038676  .00138327  00000+0  82069-3 0  9990
2 52444  97.5719 292.5570 0002189 296.2741  63.8300 15.77634135230984
JILIN-1 GAOFEN 3D28     
1 52445U 22048C   26177.59340182  .00164723  00000+0  83368-3 0  9994
2 52445  97.5646 292.5869 0001724 257.1999 102.9076 15.81097883231018
VIGORIDE-3              
1 52760U 22057AE  26177.65098007  .00005681  00000+0  21466-3 0  9995
2 52760  97.6609 317.8767 0009740  91.8702 268.3652 15.27372362226601
ION SCV-006             
1 52761U 22057AF  26177.68341501  .00012586  00000+0  26265-3 0  9993
2 52761  97.6101 326.7623 0018208  81.7325 278.5987 15.45508566227586
SHERPA-AC1              
1 52763U 22057AH  26177.38087105  .00008096  00000+0  23033-3 0  9990
2 52763  97.6689 326.9913 0008698  65.6767 294.5384 15.36385517227113
OMNI-L2                 
1 52771U 22057AR  26177.71409076  .00001260  00000+0  16723-3 0  9995
2 52771  97.4711 239.4322 0005155 298.6961  61.3734 14.81393049221804
STEP CUBE LAB-II        
1 52897U 22065D   26177.70895719  .00000965  00000+0  19617-3 0  9991
2 52897  98.2235 321.5818 0008661   4.5709 355.5571 14.63317335212895
RANDEV                  
1 52898U 22065E   26177.63915457  .00000904  00000+0  18280-3 0  9994
2 52898  98.2221 321.8682 0008037   5.7876 354.3417 14.63704908212632
SNUGLITE-II             
1 52899U 22065F   26177.66558380  .00000873  00000+0  17432-3 0  9999
2 52899  98.2211 322.4796 0007338   4.6480 355.4789 14.64363342212387
MIMAN                   
1 52900U 22065G   26177.63089537  .00000495  00000+0  10865-3 0  9995
2 52900  98.2271 320.0661 0007571   6.8308 353.2995 14.61852875211827
STARLINK-4362           
1 53043U 22077A   26177.76916969 -.00002292  00000+0 -15489-3 0  9995
2 53043  97.3097 356.2355 0002179  83.5933 276.5543 15.05664934217321
LARES-2                 
1 53105U 22080A   26177.40365794 -.00000028  00000+0  00000+0 0  9996
2 53105  70.1592 302.1681 0005264 334.1364  25.8897  6.38965133 92253
GREENCUBE (IO-117)      
1 53109U 22080E   26177.67811985 -.00000003  00000+0  00000+0 0  9990
2 53109  70.1443 294.9444 0008985 287.5436  72.4241  6.42583228 92674
STARLINK-4410           
1 53204U 22084R   26177.75001156  .00014262  00000+0  40773-3 0  9996
2 53204  97.6010 239.1013 0001323  92.6448 313.7135 15.36096024  5868
COSMOS 2558             
1 53323U 22089A   26177.73362728  .00112451  00000+0  68408-3 0  9990
2 53323  97.2253 282.1994 0002156 243.4842 116.6204 15.77141836219333
TECMS                   
1 53346U 22090A   26177.76134808  .00003632  00000+0  16456-3 0  9992
2 53346  97.3141 245.5997 0004392 146.9761 213.1750 15.21468019216264
DONGPO 02               
1 53452U 22098J   26177.32391197  .00121460  00000+0  75926-3 0  9993
2 53452  97.5521 309.3171 0003347 249.2843 110.8064 15.76491038216231
DONGPO 01               
1 53453U 22098K   26177.64551240  .00103456  00000+0  71689-3 0  9993
2 53453  97.5587 310.1688 0002332 223.9119 136.1960 15.74167190216249
STARLINK-4400           
1 53468U 22099D   26177.61549088 -.00000905  00000+0 -58785-4 0  9994
2 53468  97.3136 296.1706 0001191 140.9252 219.2062 15.05658225212368
STARLINK-4621           
1 53676U 22105AE  26177.61826591  .00004364  00000+0  30632-3 0  9991
2 53676  97.3111  56.1873 0001944 104.7321 255.4123 15.05633348209626
SHERPA-LTC2             
1 53754U 22107BG  26177.70649183  .00003662  00000+0  19521-3 0  9994
2 53754  53.2339 180.0299 0393077 252.7741 102.9863 14.69788522203946
CENTISPACE-1 S3         
1 53757U 22108A   26177.71520661  .00000410  00000+0  12062-3 0  9999
2 53757  53.5340  15.8599 0009965  20.4139 339.7233 14.61263462202924
